FENGYUN 1C DEB          
1 30641U 99025ANY 17345.92862208  .00000317  00000-0  61590-4 0  9992
2 30641  99.0015 329.8695 0177762 127.2241 287.3972 14.61683309577324
